[ 
    {
        "tleLine1": "1 40948U 98067GZ  16043.18835375  .00308676  00000-0  14640-2 0  9996", 
        "name": "AAUSAT 5", 
        "norad_id": 40948, 
        "tleLine2": "2 40948  51.6352 315.7403 0009014 140.7003 219.4655 15.81491928 20306", 
        "state": "operational", 
        "transmitters": [
            {
                "baud": 4800.0, 
                "downlink_low": 437250000, 
                "mode": "GFSK4k8", 
                "description": "4k8 GFSK TLM"
            }
        ], 
        "type": "amateur"
    }, 
    {
        "tleLine1": "1 23331U 94070A   16043.36227084 -.00000300  00000-0  00000+0 0  9991", 
        "name": "ASTRA 1D", 
        "norad_id": 23331, 
        "tleLine2": "2 23331   6.7894  53.0805 0003714 261.9525 269.9135  1.00273144 78286", 
        "state": "operational", 
        "transmitters": [], 
        "type": "geostationary"
    }, 
    {
        "tleLine1": "1 39727U 14023A   16041.68966050 -.00000281  00000-0  00000+0 0  9991", 
        "name": "LUCH 5V", 
        "norad_id": 39727, 
        "tleLine2": "2 39727   3.6388 300.3000 0003401  22.6956 160.2000  1.00270498524621", 
        "state": "operational", 
        "transmitters": [], 
        "type": "sarsat, geostationary"
    }, 
    {
        "tleLine1": "1 39728U 14023B   16042.44601616  .00000044  00000-0  00000+0 0  9997", 
        "name": "KAZSAT 3", 
        "norad_id": 39728, 
        "tleLine2": "2 39728   0.0111  87.4037 0000725 234.2745  38.2912  1.00280106  6553", 
        "state": "operational", 
        "transmitters": [], 
        "type": "geostationary"
    }, 
    {
        "tleLine1": "1 39731U 14024A   16043.49634572  .00000909  00000-0  29052-3 0  9997", 
        "name": "KAZEOSAT 1", 
        "norad_id": 39731, 
        "tleLine2": "2 39731  98.4607 122.0475 0001312  93.3810 266.7529 14.41982394 94174", 
        "state": "operational", 
        "transmitters": [], 
        "type": "resource"
    }, 
    {
        "tleLine1": "1 39741U 14026A   16043.22621417 -.00000006  00000-0  00000+0 0  9992", 
        "name": "GPS BIIF-6  (PRN 06)", 
        "norad_id": 39741, 
        "tleLine2": "2 39741  55.2084 119.8867 0005174 254.0267 105.9729  2.00567886 12742", 
        "state": "operational", 
        "transmitters": [], 
        "type": "sarsat, gps-ops"
    }, 
    {
        "tleLine1": "1 39751U 14027A   15074.62938309 0.00000000  00000-0  00000-0 0    09", 
        "name": "USA 252", 
        "norad_id": 39751, 
        "tleLine2": "2 39751   4.3327 255.4515 0004236 212.7915 147.1931  1.00270000    01", 
        "state": "operational", 
        "transmitters": [], 
        "type": "classfd"
    }, 
    {
        "tleLine1": "1 31571U 07020A   16043.53659949 -.00000099  00000-0  28356-4 0  9997", 
        "name": "GLOBALSTAR M065", 
        "norad_id": 31571, 
        "tleLine2": "2 31571  51.9897 176.7482 0001905 140.0488 296.6777 12.62263922402761", 
        "state": "operational", 
        "transmitters": [], 
        "type": "globalstar"
    }, 
    {
        "tleLine1": "1 31573U 07020C   16042.38521199 -.00000080  00000-0  13148-3 0  9998", 
        "name": "GLOBALSTAR M069", 
        "norad_id": 31573, 
        "tleLine2": "2 31573  51.9949 135.9979 0001662 165.7395 311.2477 12.62267058403351", 
        "state": "operational", 
        "transmitters": [], 
        "type": "globalstar"
    }, 
    {
        "tleLine1": "1 31574U 07020D   16042.99475469 -.00000110  00000-0 -32257-4 0  9992", 
        "name": "GLOBALSTAR M072", 
        "norad_id": 31574, 
        "tleLine2": "2 31574  52.0058 227.1495 0001253 105.0746  60.0299 12.62271664401936", 
        "state": "operational", 
        "transmitters": [], 
        "type": "globalstar"
    }, 
    {
        "tleLine1": "1 39770U 14029E   16042.77143501  .00003953  00000-0  47041-3 0  9992", 
        "name": "SPROUT", 
        "norad_id": 39770, 
        "tleLine2": "2 39770  97.8702 141.5006 0010772 134.1988 226.0121 14.84900728 93176", 
        "state": "operational", 
        "transmitters": [
            {
                "downlink_low": 437525000, 
                "mode": "CW", 
                "description": "CW Beacon"
            }
        ], 
        "type": "amateur"
    }, 
    {
        "tleLine1": "1 07004U 73107B   16043.13160318  .00031785  00000-0  60518-3 0  9993", 
        "name": "SL-8 R/B", 
        "norad_id": 7004, 
        "tleLine2": "2 07004  73.9402  40.6665 0219555  34.5256 326.9978 15.25919401161949", 
        "state": "operational", 
        "transmitters": [], 
        "type": "visible"
    }, 
    {
        "tleLine1": "1 39773U 14030A   16043.21908966  .00000003  00000-0  00000+0 0  9994", 
        "name": "EUTELSAT 3B", 
        "norad_id": 39773, 
        "tleLine2": "2 39773   0.0622   4.4866 0002505 271.5229 307.6259  1.00271353  6335", 
        "state": "operational", 
        "transmitters": [], 
        "type": "geostationary"
    }, 
    {
        "tleLine1": "1 23405U 94077B   16041.89920842  .00000171  00000-0  11248-3 0  9993", 
        "name": "SL-16 R/B", 
        "norad_id": 23405, 
        "tleLine2": "2 23405  70.9827 170.4194 0003651 312.5029  47.5784 14.15173274 95613", 
        "state": "operational", 
        "transmitters": [], 
        "type": "visible"
    }, 
    {
        "tleLine1": "1 15214U 84089A   16042.32375492  .00001138  00000-0  18758-2 0  9994", 
        "name": "MOLNIYA 1-62", 
        "norad_id": 15214, 
        "tleLine2": "2 15214  63.5516 345.2274 7325979 261.9571 250.9643  1.97941857198379", 
        "state": "operational", 
        "transmitters": [], 
        "type": "molniya"
    }, 
    {
        "tleLine1": "1 31601U 07025A   13114.84780363 0.00008000  00000-0  31699-3 0    06", 
        "name": "Ofeq 7", 
        "norad_id": 31601, 
        "tleLine2": "2 31601 141.7191 263.3953 0077000 196.6616 163.3376 15.21733109    08", 
        "state": "operational", 
        "transmitters": [], 
        "type": "classfd"
    }, 
    {
        "tleLine1": "1 23420U 94081A   16042.08590225  .00000034  00000-0  14410-3 0  9997", 
        "name": "MOLNIYA 1-88", 
        "norad_id": 23420, 
        "tleLine2": "2 23420  63.0342  57.3226 6332720 298.6438  12.4768  3.34504138169396", 
        "state": "operational", 
        "transmitters": [], 
        "type": "molniya"
    }, 
    {
        "tleLine1": "1 23435U 94084A   15070.75498077 0.00000000  00000-0  00000-0 0    05", 
        "name": "DSP F17", 
        "norad_id": 23435, 
        "tleLine2": "2 23435  13.3923  31.7099 0003931  46.3473 313.7070  1.00270000    03", 
        "state": "operational", 
        "transmitters": [], 
        "type": "classfd"
    }, 
    {
        "tleLine1": "1 23438U 94084D   15080.54105284 0.00000000  00000-0  00000-0 0    01", 
        "name": "DSP F17 r3", 
        "norad_id": 23438, 
        "tleLine2": "2 23438  13.2447  30.9870 0004623  65.5377 294.5225  1.01171145    08", 
        "state": "operational", 
        "transmitters": [], 
        "type": "classfd"
    }, 
    {
        "tleLine1": "1 23439U 94085A   16043.53723469 -.00000033  00000-0  28060-3 0  9996", 
        "name": "RADIO ROSTO (RS-15)", 
        "norad_id": 23439, 
        "tleLine2": "2 23439  64.8175 292.7601 0162258 329.7067  29.4562 11.27564473870259", 
        "state": "operational", 
        "transmitters": [
            {
                "invert": true, 
                "downlink_low": 29352000, 
                "description": "Mode H TLM"
            }
        ], 
        "type": "amateur"
    }, 
    {
        "tleLine1": "1 04327U 70009A   16043.45425288  .00000028  00000-0  95047-4 0  9993", 
        "name": "SERT 2", 
        "norad_id": 4327, 
        "tleLine2": "2 04327  99.2925 156.7206 0004561 205.1480 220.4418 13.58412932280860", 
        "state": "operational", 
        "transmitters": [], 
        "type": "visible"
    }, 
    {
        "tleLine1": "1 23467U 95003A   15115.77821443 0.00000000  00000-0  00000-0 0    01", 
        "name": "UFO F4", 
        "norad_id": 23467, 
        "tleLine2": "2 23467   8.7983  33.4509 0006457   3.4138 356.5197  1.00270000    00", 
        "state": "operational", 
        "transmitters": [], 
        "type": "classfd"
    }, 
    {
        "tleLine1": "1 31698U 07026A   16043.12677969 -.00000473  00000-0 -19347-4 0  9997", 
        "name": "TERRASAR-X", 
        "norad_id": 31698, 
        "tleLine2": "2 31698  97.4458  51.7826 0001764  69.9318 332.1806 15.19148355480321", 
        "state": "operational", 
        "transmitters": [], 
        "type": "resource"
    }, 
    {
        "tleLine1": "1 31701U 07027A   15094.81578346 0.00000020  00000-0  34591-4 0    00", 
        "name": "NOSS 3-4 (A)", 
        "norad_id": 31701, 
        "tleLine2": "2 31701  63.4020 333.3637 0128000  31.1995 328.8004 13.40677438    04", 
        "state": "operational", 
        "transmitters": [], 
        "type": "classfd"
    }, 
    {
        "tleLine1": "1 31702U 07027B   15110.86009401 0.00000400  00000-0  16411-3 0    08", 
        "name": "NOSS 3-4 r", 
        "norad_id": 31702, 
        "tleLine2": "2 31702  63.3760 358.3580 0182000 353.8624   6.1376 14.18341422    07", 
        "state": "operational", 
        "transmitters": [], 
        "type": "classfd"
    }, 
    {
        "tleLine1": "1 31708U 07027C   15094.81586898 0.00000050  00000-0  86476-4 0    00", 
        "name": "NOSS 3-4 (C)", 
        "norad_id": 31708, 
        "tleLine2": "2 31708  63.4030 333.5476 0128000  30.3737 329.6263 13.40678136    02", 
        "state": "operational", 
        "transmitters": [], 
        "type": "classfd"
    }, 
    {
        "tleLine1": "1 23533U 95015A   15059.19878813 0.00000210  00000-0  10726-3 0    06", 
        "name": "DMSP B5D2-8", 
        "norad_id": 23533, 
        "tleLine2": "2 23533  98.7506  62.5741 0007000  69.8141 290.1858 14.15665215    03", 
        "state": "operational", 
        "transmitters": [], 
        "type": "classfd"
    }
]